STARLINK-2708           
1 48661U 21044Z   22007.52399599 -.00001539  00000+0 -84502-4 0  9990
2 48661  53.0572 104.8750 0001363  90.3517 269.7628 15.06384540 34421
STARLINK-2726           
1 48662U 21044AA  22007.52029935 -.00000455  00000+0 -11657-4 0  9992
2 48662  53.0573 104.9035 0001431  99.8730 260.2420 15.06393775 34423
STARLINK-2667           
1 48663U 21044AB  22007.58294889  .00001268  00000+0  10397-3 0  9991
2 48663  53.0557 104.6104 0001068  91.4654 268.6457 15.06397952 34433
STARLINK-2709           
1 48664U 21044AC  22007.57927636 -.00000954  00000+0 -45185-4 0  9991
2 48664  53.0567 104.6389 0001289  99.9538 260.1596 15.06391336 34430
STARLINK-2653           
1 48665U 21044AD  22007.52672478 -.00000385  00000+0 -69523-5 0  9999
2 48665  53.0566 104.8730 0001404  84.6512 275.4637 15.06395473 34424
STARLINK-2666           
1 48666U 21044AE  22007.55989691 -.00000161  00000+0  80557-5 0  9992
2 48666  53.0555 104.7167 0001079  82.0213 278.0898 15.06395525 34420
STARLINK-2735           
1 48667U 21044AF  22007.57559200 -.00000466  00000+0 -12382-4 0  9993
2 48667  53.0560 104.6435 0001289  88.6106 271.5030 15.06391785 34431
STARLINK-2738           
1 48668U 21044AG  22007.57190246 -.00000386  00000+0 -69919-5 0  9995
2 48668  53.0563 104.6655 0001349 100.3229 259.7912 15.06403398 34435
STARLINK-2707           
1 48669U 21044AH  22007.56822017 -.00000653  00000+0 -24974-4 0  9991
2 48669  53.0543 104.6800 0001221 108.5404 251.5718 15.06386940 34426
STARLINK-2763           
1 48670U 21044AJ  22007.56452584 -.00000551  00000+0 -18107-4 0  9999
2 48670  53.0543 104.6958 0001252  89.7864 270.3269 15.06396797 34427
STARLINK-2745           
1 48671U 21044AK  22007.56084738 -.00000359  00000+0 -51964-5 0  9997
2 48671  53.0562 104.7184 0001360  86.6372 273.4773 15.06388499 34425
STARLINK-2705           
1 48672U 21044AL  22007.55715115 -.00000092  00000+0  12725-4 0  9991
2 48672  53.0567 104.7313 0001244  94.5078 265.6053 15.06398468 34428
STARLINK-2711           
1 48673U 21044AM  22007.55347002 -.00000313  00000+0 -21175-5 0  9995
2 48673  53.0562 104.7446 0001333 106.7640 253.3495 15.06394723 34425
STARLINK-2712           
1 48674U 21044AN  22007.54978135 -.00000092  00000+0  12711-4 0  9990
2 48674  53.0558 104.7618 0001361  92.1996 267.9149 15.06399223 34422
STARLINK-2737           
1 48675U 21044AP  22007.54610284 -.00000479  00000+0 -13279-4 0  9999
2 48675  53.0568 104.7888 0001359 102.2124 257.9017 15.06389163 34421
STARLINK-2746           
1 48676U 21044AQ  22007.54241384 -.00000605  00000+0 -21722-4 0  9994
2 48676  53.0562 104.7969 0001211  85.6079 274.5048 15.06392450 34428
STARLINK-2719           
1 48677U 21044AR  22007.53872918 -.00000380  00000+0 -66249-5 0  9991
2 48677  53.0559 104.8099 0001360  95.4453 264.6691 15.06395187 34424
STARLINK-2615           
1 48678U 21044AS  22007.53504258 -.00000340  00000+0 -39070-5 0  9999
2 48678  53.0566 104.8363 0001444  85.6963 274.4190 15.06390673 34425
STARLINK-2648           
1 48679U 21044AT  22007.53135367  .00001378  00000+0  11142-3 0  9999
2 48679  53.0569 104.8560 0001394  97.5789 262.5358 15.06392419 34424
STARLINK-2649           
1 48680U 21044AU  22007.52767159 -.00000418  00000+0 -91562-5 0  9992
2 48680  53.0560 104.8621 0001240  79.1549 280.9579 15.06392354 34422
STARLINK-2725           
1 48681U 21044AV  22007.58334491  .00035585  00000+0  23970-2 0  9994
2 48681  53.0457  74.6418 0001076  90.8201 341.5300 15.06381260  3592
STARLINK-2743           
1 48682U 21044AW  22007.58334491  .00042679  00000+0  28691-2 0  9992
2 48682  53.0537  64.6130 0001327  68.3136 339.0319 15.06370252  3599
STARLINK-2756           
1 48683U 21044AX  22007.58334491  .00046706  00000+0  31373-2 0  9999
2 48683  53.0561  64.6105 0001146  86.3113 121.0665 15.06358022  3597
STARLINK-2741           
1 48684U 21044AY  22007.53456225 -.00000343  00000+0 -41206-5 0  9993
2 48684  53.0568  79.8357 0001113  88.6990 271.4127 15.06392772 34771
STARLINK-2751           
1 48685U 21044AZ  22007.58334491  .00041136  00000+0  27671-2 0  9999
2 48685  53.0552  64.6058 0001175  98.1929 289.1600 15.06364440 35832
STARLINK-2629           
1 48686U 21044BA  22007.58334491  .00041478  00000+0  27895-2 0  9997
2 48686  53.0547  69.6089 0001246  67.4629 112.3561 15.06368794 35829
STARLINK-2627           
1 48687U 21044BB  22007.58334491  .00048986  00000+0  32874-2 0  9992
2 48687  53.0566  59.6106 0001191  76.5485  93.1507 15.06370508  3591
STARLINK-2742           
1 48688U 21044BC  22007.58334491  .00048251  00000+0  32381-2 0  9991
2 48688  53.0549  59.6070 0001255  98.2216  51.4996 15.06376737  3596
STARLINK-2617           
1 48689U 21044BD  22007.58334491  .00042252  00000+0  29046-2 0  9991
2 48689  53.0558  64.0216 0001331  79.2106 331.7815 15.05543308  3594
STARLINK-2740           
1 48690U 21044BE  22007.58334491  .00035268  00000+0  23772-2 0  9992
2 48690  53.0545  74.6096 0001340  90.2011 357.0382 15.06362251 35742
STARLINK-2750           
1 48691U 21044BF  22007.58334491  .00039749  00000+0  26742-2 0  9991
2 48691  53.0590  69.5498 0001250  69.3196 165.3909 15.06375507  3594
STARLINK-2752           
1 48692U 21044BG  22007.58334491  .00039150  00000+0  26336-2 0  9997
2 48692  53.0558  69.6110 0001047  92.8226 287.0336 15.06386826  3592
STARLINK-2618           
1 48693U 21044BH  22007.58334491  .00036959  00000+0  24887-2 0  9991
2 48693  53.0559  74.6091 0001371  75.2760 197.0551 15.06376557  3630
STARLINK-2748           
1 48694U 21044BJ  22007.58334491  .00027503  00000+0  18586-2 0  9996
2 48694  53.0545  79.6141 0001353  70.9176   8.8266 15.06388952  3599
STARLINK-2616           
1 48695U 21044BK  22007.58334491  .00031258  00000+0  21096-2 0  9999
2 48695  53.0542  79.6123 0001141  84.2113 260.6030 15.06373445 35684
STARLINK-2753           
1 48696U 21044BL  22007.57648971  .00000551  00000+0  55874-4 0  9995
2 48696  53.0589  84.6509 0001040  96.9446 263.1662 15.06395934 34716
STARLINK-2715           
1 48697U 21044BM  22007.47696906 -.00001010  00000+0 -48973-4 0  9991
2 48697  53.0573  85.0987 0001222  91.0672 269.0457 15.06387970 34699
STARLINK-3003           
1 48879U 21059A   22007.58334491 -.00025535  00000+0 -13330-2 0  9994
2 48879  97.5265 139.5819 0003241   2.1911 183.8452 15.15964513 30152
STARLINK-3004           
1 48880U 21059B   22007.58334491 -.00026252  00000+0 -13706-2 0  9990
2 48880  97.5264 139.5898 0003183 142.3741  63.1972 15.15966449 30150
STARLINK-3005           
1 48881U 21059C   22007.58334491 -.00026171  00000+0 -13656-2 0  9995
2 48881  97.5269 139.6000 0001857 123.0884  74.5722 15.15988977 30151
STARLINK-3096           
1 49131U 21082B   22007.58334491 -.00035269  00000+0 -29467-3 0  9996
2 49131  69.9993 162.3517 0003433 275.5572  18.4830 15.69768256  3693
STARLINK-3090           
1 49132U 21082C   22007.58334491 -.00045001  00000+0 -37849-2 0  9994
2 49132  70.0002 172.2236 0003110 269.5874   5.2489 14.98360278  3581
STARLINK-3077           
1 49133U 21082D   22007.58334491 -.00043620  00000+0 -36683-2 0  9995
2 49133  70.0007 172.2232 0003245 265.9651  34.5459 14.98354536  3587
STARLINK-3078           
1 49134U 21082E   22007.58334491 -.00042717  00000+0 -35918-2 0  9992
2 49134  69.9994 172.2229 0003148 268.1436  58.0401 14.98353876  3599
STARLINK-3073           
1 49135U 21082F   22007.58334491 -.00034766  00000+0 -29056-3 0  9995
2 49135  69.9994 162.3430 0003452 279.6834  20.7550 15.69756739  3697
STARLINK-3084           
1 49136U 21082G   22007.58334491 -.00034101  00000+0 -28464-3 0  9991
2 49136  69.9979 162.3498 0003681 275.0090  23.2881 15.69781247  3735
STARLINK-3055           
1 49137U 21082H   22007.58334491 -.00035695  00000+0 -29803-3 0  9999
2 49137  69.9994 162.3412 0003692 274.9470  27.6046 15.69785459  3696
STARLINK-3058           
1 49138U 21082J   22007.58334491 -.00042794  00000+0 -36733-2 0  9997
2 49138  70.0000 172.1407 0003379 261.1431 164.8975 14.97555935  3596
STARLINK-3057           
1 49139U 21082K   22007.58334491 -.00035011  00000+0 -29214-3 0  9999
2 49139  70.0003 162.3354 0003850 275.9210  30.8395 15.69794971  3698
STARLINK-3118           
1 49140U 21082L   22007.58334491 -.00037524  00000+0 -31375-3 0  9993
2 49140  69.9997 162.3297 0003341 279.7119  33.4782 15.69765089  3732
STARLINK-3093           
1 49141U 21082M   22007.58334491 -.00042125  00000+0 -35422-2 0  9993
2 49141  70.0002 172.2230 0003137 269.0168 108.5887 14.98348303  3590
STARLINK-3042           
1 49142U 21082N   22007.58334491 -.00038012  00000+0 -31807-3 0  9998
2 49142  69.9981 162.3320 0003638 279.0329  36.3289 15.69748862  3698
STARLINK-3109           
1 49143U 21082P   22007.58334491 -.00038927  00000+0 -32526-3 0  9993
2 49143  69.9981 162.3307 0003586 278.7167  38.6945 15.69789579  3696
STARLINK-3100           
1 49144U 21082Q   22007.58334491  .00000815  00000+0  76109-4 0  9993
2 49144  70.0009 172.2230 0003111 270.8187 132.4571 14.98340205  3592
STARLINK-3119           
1 49145U 21082R   22007.58334491 -.00038980  00000+0 -32607-3 0  9994
2 49145  70.0010 162.3123 0003578 276.5973  49.3713 15.69762410  3734
STARLINK-3116           
1 49146U 21082S   22007.58334491 -.00038263  00000+0 -31955-3 0  9994
2 49146  70.0000 162.3195 0003759 274.5367  49.2284 15.69796450  3697
STARLINK-3071           
1 49147U 21082T   22007.58334491 -.00037792  00000+0 -31617-3 0  9996
2 49147  70.0007 162.3208 0003543 277.7241  41.8891 15.69752469 19395
STARLINK-3048           
1 49148U 21082U   22007.58334491 -.00141492  00000+0 -11991-2 0  9992
2 49148  69.9979 162.3128 0003671 279.1654  51.0181 15.69836538  3699
STARLINK-3053           
1 49149U 21082V   22007.58334491 -.00043002  00000+0 -36164-2 0  9990
2 49149  69.9975 172.2361 0003370 280.4159 148.6045 14.98349195  3596
STARLINK-3104           
1 49150U 21082W   22007.58334491 -.00044143  00000+0 -37128-2 0  9990
2 49150  69.9967 172.2362 0003298 281.1857 173.6608 14.98352684  3592
